EUTELSAT 139 WEST A     
1 28187U 04008A   26013.53130972  .00000087  00000+0  00000+0 0  9993
2 28187   5.4330  73.8770 0019385 202.9205 248.4698  1.00554299 79801
EUTELSAT 174A           
1 28924U 05052A   26016.26327109  .00000023  00000+0  00000+0 0  9995
2 28924   3.8330  78.4424 0006222 220.0705  85.9842  1.00269340 50805
EUTELSAT 33F            
1 29270U 06032A   26016.23527758  .00000172  00000+0  00000+0 0  9993
2 29270   1.2690  84.0553 0003394 219.3022 290.0828  1.00273481 45782
EUTELSAT HOTBIRD 13C    
1 33459U 08065A   26016.30426190 -.00000268  00000+0  00000+0 0  9998
2 33459   2.5597  81.0419 0002993 224.1305 229.7895  1.00271051 45825
EUTELSAT 36B            
1 36101U 09065A   26015.73947804  .00000130  00000+0  00000+0 0  9999
2 36101   0.1074  67.1638 0005324 231.3998 133.3495  1.00274816 59174
EUTELSAT KA-SAT 9A      
1 37258U 10069A   26015.37466499  .00000080  00000+0  00000+0 0  9999
2 37258   0.0492 346.0571 0002172 187.3641  85.2497  1.00271358 42479
EUTELSAT 7 WEST A       
1 37816U 11051A   26016.22730420 -.00000042  00000+0  00000+0 0  9993
2 37816   0.0618   4.0278 0004007 234.7753 311.3714  1.00271823 52354
EUTELSAT 16A            
1 37836U 11057A   26016.23189756  .00000122  00000+0  00000+0 0  9990
2 37836   0.0539 354.6430 0005155 301.5031 279.0129  1.00269340  5808
